GPS BIIR-2  (PRN 13)    
1 24876C 97035A   20319.82645833 -.00000000  00000-0  00000-0 0  3192
2 24876  55.4605 178.2858 0045921  58.6509 168.7333  2.00561563    17
GPS BIIR-4  (PRN 20)    
1 26360C 00025A   20319.82645833 -.00000000  00000-0  00000-0 0  3195
2 26360  53.6254 102.9152 0057472 160.2093  47.5311  2.00564344    10
GPS BIIR-5  (PRN 28)    
1 26407C 00040A   20319.82645833  .00000000  00000-0  00000-0 0  3193
2 26407  55.8844 296.2334 0185903 280.9869 248.1417  2.00564420    13
GPS BIIR-8  (PRN 16)    
1 27663C 03005A   20319.82645833  .00000000  00000-0  00000-0 0  3192
2 27663  55.9384 296.0255 0116100  35.0384 257.9778  2.00572011    15
GPS BIIR-9  (PRN 21)    
1 27704C 03010A   20319.82645833 -.00000000  00000-0  00000-0 0  3195
2 27704  54.7262  46.8669 0241821 287.3502 225.7579  2.00409661    18
GPS BIIR-10 (PRN 22)    
1 28129C 03058A   20319.82645833 -.00000000  00000-0  00000-0 0  3199
2 28129  53.4356 105.6023 0069172 297.5106 148.5960  2.00562079    17
GPS BIIR-11 (PRN 19)    
1 28190C 04009A   20319.82645833  .00000000  00000-0  00000-0 0  3193
2 28190  56.2478 356.8524 0088107 100.4857 346.6146  2.00571948    13
GPS BIIR-13 (PRN 02)    
1 28474C 04045A   20319.82645833 -.00000000  00000-0  00000-0 0  3199
2 28474  55.0660  46.7916 0203253 269.1866  92.6129  2.00577362    17
GPS BIIRM-1 (PRN 17)    
1 28874C 05038A   20319.82645833  .00000000  00000-0  00000-0 0  3195
2 28874  56.3425 354.2522 0137939 267.5812 197.1188  2.00584207    16
GPS BIIRM-2 (PRN 31)    
1 29486C 06042A   20319.82645833  .00000000  00000-0  00000-0 0  3191
2 29486  54.8186 232.3718 0098292   9.8723  21.6534  2.00561190    14
GPS BIIRM-3 (PRN 12)    
1 29601C 06052A   20319.82645833  .00000000  00000-0  00000-0 0  3191
2 29601  55.9295 294.9470 0077740  65.9662   3.8071  2.00572059    19
GPS BIIRM-4 (PRN 15)    
1 32260C 07047A   20319.82645833 -.00000000  00000-0  00000-0 0  3192
2 32260  53.2039 164.5617 0128392  53.6135 152.2416  2.00550856    18
GPS BIIRM-5 (PRN 29)    
1 32384C 07062A   20319.82645833  .00000000  00000-0  00000-0 0  3195
2 32384  56.4430 354.9436 0013272 136.4275 199.7040  2.00557893    11
GPS BIIRM-6 (PRN 07)    
1 32711C 08012A   20319.82645833  .00000000  00000-0  00000-0 0  3195
2 32711  54.5678 231.4399 0144006 225.4808  41.1574  2.00568298    19
GPS BIIRM-8 (PRN 05)    
1 35752C 09043A   20319.82645833 -.00000000  00000-0  00000-0 0  3199
2 35752  54.6765 108.9448 0059042  49.7945 245.5962  2.00552628    13
GPS BIIF-1  (PRN 25)    
1 36585C 10022A   20319.82645833  .00000000  00000-0  00000-0 0  3192
2 36585  55.2030 290.8753 0091406  52.1573 347.4147  2.00559530    11
GPS BIIF-2  (PRN 01)    
1 37753C 11036A   20319.82645833 -.00000000  00000-0  00000-0 0  3197
2 37753  56.2771  51.3638 0099371  46.5367  81.0751  2.00561162    17
GPS BIIF-3  (PRN 24)    
1 38833C 12053A   20319.82645833  .00000000  00000-0  00000-0 0  3196
2 38833  53.6131 227.1417 0103536  38.9167  99.7380  2.00568226    10
GPS BIIF-4  (PRN 27)    
1 39166C 13023A   20319.82645833  .00000000  00000-0  00000-0 0  3194
2 39166  55.9972 350.8440 0083968  31.0991 207.0834  2.00563552    18
GPS BIIF-5  (PRN 30)    
1 39533C 14008A   20319.82645833  .00000000  00000-0  00000-0 0  3196
2 39533  53.7233 232.5907 0048260 201.1292  39.7655  2.00575403    15
GPS BIIF-6  (PRN 06)    
1 39741C 14026A   20319.82645833 -.00000000  00000-0  00000-0 0  3198
2 39741  56.2493  50.8910 0022030 290.8688 107.0290  2.00566219    17
GPS BIIF-7  (PRN 09)    
1 40105C 14045A   20319.82645833 -.00000000  00000-0  00000-0 0  3195
2 40105  54.6024 169.9454 0017561 102.2233 228.9505  2.00569356    12
GPS BIIF-8  (PRN 03)    
1 40294C 14068A   20319.82645833 -.00000000  00000-0  00000-0 0  3199
2 40294  55.4260 110.9066 0030901  48.8995  14.4760  2.00559162    15
GPS BIIF-9  (PRN 26)    
1 40534C 15013A   20319.82645833  .00000000  00000-0  00000-0 0  3196
2 40534  54.1142 288.6707 0052434   9.3498 317.2894  2.00559417    12
GPS BIIF-10 (PRN 08)    
1 40730C 15033A   20319.82645833  .00000000  00000-0  00000-0 0  3196
2 40730  55.5106 349.9465 0057504 353.7472 214.2157  2.00554715    12
GPS BIIF-11 (PRN 10)    
1 41019C 15062A   20319.82645833 -.00000000  00000-0  00000-0 0  3190
2 41019  55.4210 110.7361 0062580 209.6311 324.3229  2.00564062    17
GPS BIIF-12 (PRN 32)    
1 41328C 16007A   20319.82645833 -.00000000  00000-0  00000-0 0  3193
2 41328  54.8347 170.4706 0043740 221.0745 244.6572  2.00571168    16
GPS BIII-1  (PRN 04)    
1 43873C 18109A   20319.82645833 -.00000000  00000-0  00000-0 0  3195
2 43873  55.0157 172.7688 0009530 199.6413 162.5159  2.00570162    12
GPS BIII-2  (PRN 18)    
1 44506C 19056A   20319.82645833 -.00000000  00000-0  00000-0 0  3191
2 44506  55.3403  52.2035 0011351 178.7911  83.1692  2.00559784    13
GPS BIII-3  (PRN 23)    
1 45854C 20041A   20319.82645833 -.00000000  00000-0  00000-0 0  3194
2 45854  55.1310 109.4501 0009111 128.8015  72.0883  2.00568635    14
GPS BIII-4  (PRN 14)    
1 46826C 20078A   20319.82645833  .00000000  00000-0  00000-0 0  3193
2 46826  54.9926 293.6098 0000856  24.6283 154.9752  2.00564053    13
